IRIDIUM 33              
1 24946U 97051C   26064.33318110  .00000435  00000+0  14561-3 0  9996
2 24946  86.3875  33.5265 0006292 317.7606  42.3105 14.35098364490198
IRIDIUM 33 DEB          
1 33773U 97051L   26064.63000333  .00001639  00000+0  47917-3 0  9990
2 33773  86.4029  25.4418 0009038 234.0462 125.9901 14.43468894895436
IRIDIUM 33 DEB          
1 33775U 97051N   26064.61109536  .00002189  00000+0  66496-3 0  9999
2 33775  86.3670  14.1597 0010776 248.6109 291.1457 14.41742570893346
IRIDIUM 33 DEB          
1 33776U 97051P   26064.68478355  .00001268  00000+0  40964-3 0  9994
2 33776  86.4020  45.9097 0012367 289.6463 244.2487 14.38397717892740
IRIDIUM 33 DEB          
1 33777U 97051Q   26064.78719056  .00004277  00000+0  96127-3 0  9997
2 33777  86.3835 359.0588 0006800   0.3563 359.7648 14.56300055897422
IRIDIUM 33 DEB          
1 33850U 97051T   26064.75158903  .00001901  00000+0  56828-3 0  9999
2 33850  86.3467 354.4858 0008906 257.7340 122.8749 14.42471951893497
IRIDIUM 33 DEB          
1 33853U 97051W   26064.73460058  .00003260  00000+0  18374-2 0  9990
2 33853  85.9999 313.4216 0210443 342.3155 105.1754 13.99565258865061
IRIDIUM 33 DEB          
1 33860U 97051AD  26064.27836995  .00010932  00000+0  18599-2 0  9997
2 33860  86.3875 350.6659 0011643  59.5548  58.9635 14.68966335899333
IRIDIUM 33 DEB          
1 33862U 97051AF  26064.55412360  .00014321  00000+0  22458-2 0  9991
2 33862  86.4133   0.9506 0050366 137.1889  36.1671 14.71714012900401
IRIDIUM 33 DEB          
1 33866U 97051AK  26064.48094788  .00004122  00000+0  16226-2 0  9991
2 33866  86.2985  57.9988 0110728 256.3263 226.5040 14.25710871879894
IRIDIUM 33 DEB          
1 33870U 97051AP  26064.32613878  .00004098  00000+0  11345-2 0  9995
2 33870  86.3776  22.8332 0018190 270.1490 243.1265 14.46370553893306
IRIDIUM 33 DEB          
1 33881U 97051BA  26064.44889490  .00018798  00000+0  39275-2 0  9999
2 33881  86.3812  70.7148 0052790 256.6690 230.4684 14.58878105887059
IRIDIUM 33 DEB          
1 33884U 97051BD  26064.75125203  .00019639  00000+0  25765-2 0  9995
2 33884  86.3722 332.2889 0013810  30.3801 352.6583 14.80141206900748
IRIDIUM 33 DEB          
1 33886U 97051BF  26064.45659707  .00000870  00000+0  29186-3 0  9994
2 33886  86.3838  32.3869 0013453 345.2417 135.7932 14.36162344892394
IRIDIUM 33 DEB          
1 33887U 97051BG  26064.73694145  .00000609  00000+0  19764-3 0  9992
2 33887  86.3081 327.6485 0005589 349.8569  63.5207 14.37320370893578
IRIDIUM 33 DEB          
1 33953U 97051BN  26063.84109891  .00007661  00000+0  17215-2 0  9999
2 33953  86.3883  18.1098 0015478 172.8521 216.8565 14.56333142894982
