[{"OBJECT_NAME":"IRIDIUM 33","OBJECT_ID":"1997-051C","EPOCH":"2026-03-05T07:59:46.847040","MEAN_MOTION":14.35098364,"ECCENTRICITY":0.0006292,"INCLINATION":86.3875,"RA_OF_ASC_NODE":33.5265,"ARG_OF_PERICENTER":317.7606,"MEAN_ANOMALY":42.3105,"EPHEMERIS_TYPE":0,"CLASSIFICATION_TYPE":"U","NORAD_CAT_ID":24946,"ELEMENT_SET_NO":999,"REV_AT_EPOCH":49019,"BSTAR":0.00014561,"MEAN_MOTION_DOT":4.35e-6,"MEAN_MOTION_DDOT":0},{"OBJECT_NAME":"IRIDIUM 33 DEB","OBJECT_ID":"1997-051L","EPOCH":"2026-03-05T15:07:12.287712","MEAN_MOTION":14.43468894,"ECCENTRICITY":0.0009038,"INCLINATION":86.4029,"RA_OF_ASC_NODE":25.4418,"ARG_OF_PERICENTER":234.0462,"MEAN_ANOMALY":125.9901,"EPHEMERIS_TYPE":0,"CLASSIFICATION_TYPE":"U","NORAD_CAT_ID":33773,"ELEMENT_SET_NO":999,"REV_AT_EPOCH":89543,"BSTAR":0.00047917,"MEAN_MOTION_DOT":1.639e-5,"MEAN_MOTION_DDOT":0},{"OBJECT_NAME":"IRIDIUM 33 DEB","OBJECT_ID":"1997-051N","EPOCH":"2026-03-05T14:39:58.639104","MEAN_MOTION":14.4174257,"ECCENTRICITY":0.0010776,"INCLINATION":86.367,"RA_OF_ASC_NODE":14.1597,"ARG_OF_PERICENTER":248.6109,"MEAN_ANOMALY":291.1457,"EPHEMERIS_TYPE":0,"CLASSIFICATION_TYPE":"U","NORAD_CAT_ID":33775,"ELEMENT_SET_NO":999,"REV_AT_EPOCH":89334,"BSTAR":0.00066496,"MEAN_MOTION_DOT":2.189e-5,"MEAN_MOTION_DDOT":0},{"OBJECT_NAME":"IRIDIUM 33 DEB","OBJECT_ID":"1997-051P","EPOCH":"2026-03-05T16:26:05.298720","MEAN_MOTION":14.38397717,"ECCENTRICITY":0.0012367,"INCLINATION":86.402,"RA_OF_ASC_NODE":45.9097,"ARG_OF_PERICENTER":289.6463,"MEAN_ANOMALY":244.2487,"EPHEMERIS_TYPE":0,"CLASSIFICATION_TYPE":"U","NORAD_CAT_ID":33776,"ELEMENT_SET_NO":999,"REV_AT_EPOCH":89274,"BSTAR":0.00040964,"MEAN_MOTION_DOT":1.268e-5,"MEAN_MOTION_DDOT":0},{"OBJECT_NAME":"IRIDIUM 33 DEB","OBJECT_ID":"1997-051Q","EPOCH":"2026-03-05T18:53:33.264384","MEAN_MOTION":14.56300055,"ECCENTRICITY":0.00068,"INCLINATION":86.3835,"RA_OF_ASC_NODE":359.0588,"ARG_OF_PERICENTER":0.3563,"MEAN_ANOMALY":359.7648,"EPHEMERIS_TYPE":0,"CLASSIFICATION_TYPE":"U","NORAD_CAT_ID":33777,"ELEMENT_SET_NO":999,"REV_AT_EPOCH":89742,"BSTAR":0.00096127,"MEAN_MOTION_DOT":4.277e-5,"MEAN_MOTION_DDOT":0},{"OBJECT_NAME":"IRIDIUM 33 DEB","OBJECT_ID":"1997-051T","EPOCH":"2026-03-05T18:02:17.292192","MEAN_MOTION":14.42471951,"ECCENTRICITY":0.0008906,"INCLINATION":86.3467,"RA_OF_ASC_NODE":354.4858,"ARG_OF_PERICENTER":257.734,"MEAN_ANOMALY":122.8749,"EPHEMERIS_TYPE":0,"CLASSIFICATION_TYPE":"U","NORAD_CAT_ID":33850,"ELEMENT_SET_NO":999,"REV_AT_EPOCH":89349,"BSTAR":0.00056828,"MEAN_MOTION_DOT":1.901e-5,"MEAN_MOTION_DDOT":0},{"OBJECT_NAME":"IRIDIUM 33 DEB","OBJECT_ID":"1997-051W","EPOCH":"2026-03-05T17:37:49.490112","MEAN_MOTION":13.99565258,"ECCENTRICITY":0.0210443,"INCLINATION":85.9999,"RA_OF_ASC_NODE":313.4216,"ARG_OF_PERICENTER":342.3155,"MEAN_ANOMALY":105.1754,"EPHEMERIS_TYPE":0,"CLASSIFICATION_TYPE":"U","NORAD_CAT_ID":33853,"ELEMENT_SET_NO":999,"REV_AT_EPOCH":86506,"BSTAR":0.0018374,"MEAN_MOTION_DOT":3.26e-5,"MEAN_MOTION_DDOT":0},{"OBJECT_NAME":"IRIDIUM 33 DEB","OBJECT_ID":"1997-051AD","EPOCH":"2026-03-05T06:40:51.163680","MEAN_MOTION":14.68966335,"ECCENTRICITY":0.0011643,"INCLINATION":86.3875,"RA_OF_ASC_NODE":350.6659,"ARG_OF_PERICENTER":59.5548,"MEAN_ANOMALY":58.9635,"EPHEMERIS_TYPE":0,"CLASSIFICATION_TYPE":"U","NORAD_CAT_ID":33860,"ELEMENT_SET_NO":999,"REV_AT_EPOCH":89933,"BSTAR":0.0018599,"MEAN_MOTION_DOT":0.00010932,"MEAN_MOTION_DDOT":0},{"OBJECT_NAME":"IRIDIUM 33 DEB","OBJECT_ID":"1997-051AF","EPOCH":"2026-03-05T13:17:56.279040","MEAN_MOTION":14.71714012,"ECCENTRICITY":0.0050366,"INCLINATION":86.4133,"RA_OF_ASC_NODE":0.9506,"ARG_OF_PERICENTER":137.1889,"MEAN_ANOMALY":36.1671,"EPHEMERIS_TYPE":0,"CLASSIFICATION_TYPE":"U","NORAD_CAT_ID":33862,"ELEMENT_SET_NO":999,"REV_AT_EPOCH":90040,"BSTAR":0.0022458,"MEAN_MOTION_DOT":0.00014321,"MEAN_MOTION_DDOT":0},{"OBJECT_NAME":"IRIDIUM 33 DEB","OBJECT_ID":"1997-051AK","EPOCH":"2026-03-05T11:32:33.896832","MEAN_MOTION":14.25710871,"ECCENTRICITY":0.0110728,"INCLINATION":86.2985,"RA_OF_ASC_NODE":57.9988,"ARG_OF_PERICENTER":256.3263,"MEAN_ANOMALY":226.504,"EPHEMERIS_TYPE":0,"CLASSIFICATION_TYPE":"U","NORAD_CAT_ID":33866,"ELEMENT_SET_NO":999,"REV_AT_EPOCH":87989,"BSTAR":0.0016226,"MEAN_MOTION_DOT":4.122e-5,"MEAN_MOTION_DDOT":0},{"OBJECT_NAME":"IRIDIUM 33 DEB","OBJECT_ID":"1997-051AP","EPOCH":"2026-03-05T07:49:38.390592","MEAN_MOTION":14.46370553,"ECCENTRICITY":0.001819,"INCLINATION":86.3776,"RA_OF_ASC_NODE":22.8332,"ARG_OF_PERICENTER":270.149,"MEAN_ANOMALY":243.1265,"EPHEMERIS_TYPE":0,"CLASSIFICATION_TYPE":"U","NORAD_CAT_ID":33870,"ELEMENT_SET_NO":999,"REV_AT_EPOCH":89330,"BSTAR":0.0011345,"MEAN_MOTION_DOT":4.098e-5,"MEAN_MOTION_DDOT":0},{"OBJECT_NAME":"IRIDIUM 33 DEB","OBJECT_ID":"1997-051BA","EPOCH":"2026-03-05T10:46:24.519360","MEAN_MOTION":14.58878105,"ECCENTRICITY":0.005279,"INCLINATION":86.3812,"RA_OF_ASC_NODE":70.7148,"ARG_OF_PERICENTER":256.669,"MEAN_ANOMALY":230.4684,"EPHEMERIS_TYPE":0,"CLASSIFICATION_TYPE":"U","NORAD_CAT_ID":33881,"ELEMENT_SET_NO":999,"REV_AT_EPOCH":88705,"BSTAR":0.0039275,"MEAN_MOTION_DOT":0.00018798,"MEAN_MOTION_DDOT":0},{"OBJECT_NAME":"IRIDIUM 33 DEB","OBJECT_ID":"1997-051BD","EPOCH":"2026-03-05T18:01:48.175392","MEAN_MOTION":14.80141206,"ECCENTRICITY":0.001381,"INCLINATION":86.3722,"RA_OF_ASC_NODE":332.2889,"ARG_OF_PERICENTER":30.3801,"MEAN_ANOMALY":352.6583,"EPHEMERIS_TYPE":0,"CLASSIFICATION_TYPE":"U","NORAD_CAT_ID":33884,"ELEMENT_SET_NO":999,"REV_AT_EPOCH":90074,"BSTAR":0.0025765,"MEAN_MOTION_DOT":0.00019639,"MEAN_MOTION_DDOT":0},{"OBJECT_NAME":"IRIDIUM 33 DEB","OBJECT_ID":"1997-051BF","EPOCH":"2026-03-05T10:57:29.986848","MEAN_MOTION":14.36162344,"ECCENTRICITY":0.0013453,"INCLINATION":86.3838,"RA_OF_ASC_NODE":32.3869,"ARG_OF_PERICENTER":345.2417,"MEAN_ANOMALY":135.7932,"EPHEMERIS_TYPE":0,"CLASSIFICATION_TYPE":"U","NORAD_CAT_ID":33886,"ELEMENT_SET_NO":999,"REV_AT_EPOCH":89239,"BSTAR":0.00029186,"MEAN_MOTION_DOT":8.7e-6,"MEAN_MOTION_DDOT":0},{"OBJECT_NAME":"IRIDIUM 33 DEB","OBJECT_ID":"1997-051BG","EPOCH":"2026-03-05T17:41:11.741280","MEAN_MOTION":14.3732037,"ECCENTRICITY":0.0005589,"INCLINATION":86.3081,"RA_OF_ASC_NODE":327.6485,"ARG_OF_PERICENTER":349.8569,"MEAN_ANOMALY":63.5207,"EPHEMERIS_TYPE":0,"CLASSIFICATION_TYPE":"U","NORAD_CAT_ID":33887,"ELEMENT_SET_NO":999,"REV_AT_EPOCH":89357,"BSTAR":0.00019764,"MEAN_MOTION_DOT":6.09e-6,"MEAN_MOTION_DDOT":0},{"OBJECT_NAME":"IRIDIUM 33 DEB","OBJECT_ID":"1997-051BN","EPOCH":"2026-03-04T20:11:10.945824","MEAN_MOTION":14.56333142,"ECCENTRICITY":0.00154787,"INCLINATION":86.3883,"RA_OF_ASC_NODE":18.1098,"ARG_OF_PERICENTER":172.8521,"MEAN_ANOMALY":216.8565,"EPHEMERIS_TYPE":0,"CLASSIFICATION_TYPE":"U","NORAD_CAT_ID":33953,"ELEMENT_SET_NO":999,"REV_AT_EPOCH":89498,"BSTAR":0.001721472,"MEAN_MOTION_DOT":7.661e-5,"MEAN_MOTION_DDOT":0}]
